NORAD_CAT_ID,OBJECT_NAME,OBJECT_TYPE,EPOCH,MEAN_MOTION,ECCENTRICITY,INCLINATION,RA_OF_ASC_NODE,ARG_OF_PERICENTER,MEAN_ANOMALY,BSTAR,MEAN_MOTION_DOT,MEAN_MOTION_DDOT,TLE_LINE0,TLE_LINE1,TLE_LINE2,SEMIMAJOR_AXIS,PERIOD,APOGEE,PERIGEE,DECAYED
53918.0,STARLINK-5012,PAYLOAD,2024-04-06 17:26:33,15.08835192,0.0001343,53.2172,225.2655,103.6882,256.426,6.3568e-05,7.24e-06,0.0,0 STARLINK-5012,1 53918U 22119AJ  24097.72677904  .00000724  00000-0  63568-4 0  9990,2 53918  53.2172 225.2655 0001343 103.6882 256.4260 15.08835192 85431,6917.895,95.438,540.689,538.831,0.0
53918.0,STARLINK-5012,PAYLOAD,2024-04-07 17:17:20,15.08838545,0.0001216,53.216,220.8039,94.0706,266.0425,1.488e-05,-5.1e-07,0.0,0 STARLINK-5012,1 53918U 22119AJ  24098.72038063 -.00000051  00000-0  14880-4 0  9995,2 53918  53.2160 220.8039 0001216  94.0706 266.0425 15.08838545 86001,6917.885,95.438,540.591,538.909,0.0
53918.0,STARLINK-5012,PAYLOAD,2024-04-08 01:14:16,15.08836943,0.0001272,53.2173,219.3157,85.4988,274.6149,5.1574e-05,5.33e-06,0.0,0 STARLINK-5012,1 53918U 22119AJ  24099.05158156  .00000533  00000-0  51574-4 0  9993,2 53918  53.2173 219.3157 0001272  85.4988 274.6149 15.08836943 85633,6917.89,95.438,540.635,538.875,0.0
53918.0,STARLINK-5012,PAYLOAD,2024-04-08 13:57:21,15.08838595,9.31e-05,53.2192,216.9351,88.6837,271.4262,0.00012776,1.746e-05,0.0,0 STARLINK-5012,1 53918U 22119AJ  24099.58149941  .00001746  00000-0  12776-3 0  9990,2 53918  53.2192 216.9351 0000931  88.6837 271.4262 15.08838595 86134,6917.885,95.438,540.394,539.106,0.0
53918.0,STARLINK-5012,PAYLOAD,2024-04-09 01:05:03,15.08844503,0.0001247,53.218,214.8545,84.6303,275.4831,0.0001641,2.325e-05,0.0,0 STARLINK-5012,1 53918U 22119AJ  24100.04517577  .00002325  00000-0  16410-3 0  9991,2 53918  53.2180 214.8545 0001247  84.6303 275.4831 15.08844503 85780,6917.867,95.437,540.594,538.869,0.0
53918.0,STARLINK-5012,PAYLOAD,2024-04-09 07:26:36,15.08827719,0.0001616,53.2138,213.6665,85.4211,274.6965,0.00029785,4.454e-05,0.0,0 STARLINK-5012,1 53918U 22119AJ  24100.31013912  .00004454  00000-0  29785-3 0  9999,2 53918  53.2138 213.6665 0001616  85.4211 274.6965 15.08827719 85824,6917.918,95.438,540.901,538.665,0.0
53918.0,STARLINK-5012,PAYLOAD,2024-04-10 13:38:55,15.08847254,0.000159,53.2176,208.0122,96.0739,264.0434,2.2719e-05,7.4e-07,0.0,0 STARLINK-5012,1 53918U 22119AJ  24101.56869660  .00000074  00000-0  22719-4 0  9991,2 53918  53.2176 208.0122 0001590  96.0739 264.0434 15.08847254 86434,6917.858,95.437,540.823,538.623,0.0
53918.0,STARLINK-5012,PAYLOAD,2024-04-10 16:49:41,15.08861485,0.0001556,53.2181,207.4187,99.8871,260.2297,-0.00018275,-3.197e-05,0.0,0 STARLINK-5012,1 53918U 22119AJ  24101.70117383 -.00003197  00000-0 -18275-3 0  9997,2 53918  53.2181 207.4187 0001556  99.8871 260.2297 15.08861485 86453,6917.815,95.436,540.756,538.603,0.0
53918.0,STARLINK-5012,PAYLOAD,2024-04-11 13:29:42,15.08842109,0.0001319,53.2166,203.5531,89.6795,270.4348,0.00010351,1.36e-05,0.0,0 STARLINK-5012,1 53918U 22119AJ  24102.56229884  .00001360  00000-0  10351-3 0  9997,2 53918  53.2166 203.5531 0001319  89.6795 270.4348 15.08842109 86165,6917.874,95.437,540.651,538.826,0.0
53918.0,STARLINK-5012,PAYLOAD,2024-04-12 11:45:06,15.08842757,0.0001481,53.2181,199.3932,91.3988,268.7174,6.1596e-05,6.93e-06,0.0,0 STARLINK-5012,1 53918U 22119AJ  24103.48966035  .00000693  00000-0  61596-4 0  9991,2 53918  53.2181 199.3932 0001481  91.3988 268.7174 15.08842757 86721,6917.872,95.437,540.761,538.712,0.0
53918.0,STARLINK-5012,PAYLOAD,2024-04-13 11:35:54,15.08835566,0.0001487,53.2181,194.9338,86.3077,273.8085,-2.0725e-05,-6.18e-06,0.0,0 STARLINK-5012,1 53918U 22119AJ  24104.48326973 -.00000618  00000-0 -20725-4 0  9991,2 53918  53.2181 194.9338 0001487  86.3077 273.8085 15.08835566 86459,6917.894,95.438,540.788,538.73,0.0
53918.0,STARLINK-5012,PAYLOAD,2024-04-14 13:02:04,15.08838646,0.0001354,53.2178,190.1767,75.2319,284.8823,5.4344e-05,5.77e-06,0.0,0 STARLINK-5012,1 53918U 22119AJ  24105.54311027  .00000577  00000-0  54344-4 0  9999,2 53918  53.2178 190.1767 0001354  75.2319 284.8823 15.08838646 86610,6917.885,95.438,540.686,538.813,0.0
53918.0,STARLINK-5012,PAYLOAD,2024-04-15 12:52:50,15.08851317,0.0001679,53.218,185.7156,74.1456,285.9721,0.00022138,3.238e-05,0.0,0 STARLINK-5012,1 53918U 22119AJ  24106.53669972  .00003238  00000-0  22138-3 0  9996,2 53918  53.2180 185.7156 0001679  74.1456 285.9721 15.08851317 86760,6917.846,95.437,540.872,538.549,0.0
53918.0,STARLINK-5012,PAYLOAD,2024-04-16 04:46:42,15.08848894,0.0001482,53.2171,182.7415,78.2563,281.8595,0.00011025,1.467e-05,0.0,0 STARLINK-5012,1 53918U 22119AJ  24107.19910389  .00001467  00000-0  11025-3 0  9995,2 53918  53.2171 182.7415 0001482  78.2563 281.8595 15.08848894 86862,6917.853,95.437,540.743,538.693,0.0
53918.0,STARLINK-5012,PAYLOAD,2024-04-16 12:43:37,15.08857474,0.0001447,53.216,181.2538,89.8486,270.2672,0.00023936,3.525e-05,0.0,0 STARLINK-5012,1 53918U 22119AJ  24107.53029678  .00003525  00000-0  23936-3 0  9996,2 53918  53.2160 181.2538 0001447  89.8486 270.2672 15.08857474 87338,6917.827,95.436,540.693,538.691,0.0
53918.0,STARLINK-5012,PAYLOAD,2024-04-17 04:37:28,15.08853688,0.0001754,53.2179,178.2789,78.9551,281.1638,-1.4835e-06,-3.12e-06,0.0,0 STARLINK-5012,1 53918U 22119AJ  24108.19269652 -.00000312  00000-0 -14835-5 0  9990,2 53918  53.2179 178.2789 0001754  78.9551 281.1638 15.08853688 87016,6917.839,95.437,540.917,538.49,0.0
53918.0,STARLINK-5012,PAYLOAD,2024-04-17 10:59:01,15.08852721,0.000191,53.2169,177.0897,72.747,287.3731,0.00012471,1.698e-05,0.0,0 STARLINK-5012,1 53918U 22119AJ  24108.45765566  .00001698  00000-0  12471-3 0  9992,2 53918  53.2169 177.0897 0001910  72.7470 287.3731 15.08852721 87477,6917.842,95.437,541.028,538.385,0.0
53918.0,STARLINK-5012,PAYLOAD,2024-04-18 10:49:49,15.08830634,0.0001373,53.2164,172.6269,97.0164,263.0984,-0.00010634,-1.979e-05,0.0,0 STARLINK-5012,1 53918U 22119AJ  24109.45126690 -.00001979  00000-0 -10634-3 0  9995,2 53918  53.2164 172.6269 0001373  97.0164 263.0984 15.08830634 87200,6917.909,95.438,540.724,538.824,0.0
53918.0,STARLINK-5012,PAYLOAD,2024-04-19 10:40:36,15.08842158,0.0001553,53.2155,168.1668,93.5722,266.5448,0.00029128,4.351e-05,0.0,0 STARLINK-5012,1 53918U 22119AJ  24110.44487183  .00004351  00000-0  29128-3 0  9996,2 53918  53.2155 168.1668 0001553  93.5722 266.5448 15.08842158 87357,6917.874,95.437,540.813,538.664,0.0
53918.0,STARLINK-5012,PAYLOAD,2024-04-20 10:31:23,15.08866959,0.0001815,53.2172,163.7111,98.8114,261.3084,0.00068397,0.00010622,0.0,0 STARLINK-5012,1 53918U 22119AJ  24111.43846341  .00010622  00000-0  68397-3 0  9990,2 53918  53.2172 163.7111 0001815  98.8114 261.3084 15.08866959 87505,6917.798,95.436,540.919,538.407,0.0
53918.0,STARLINK-5012,PAYLOAD,2024-04-21 02:25:15,15.0882002,0.0001904,53.217,160.7356,89.6289,270.4922,-0.00045829,-7.571e-05,0.0,0 STARLINK-5012,1 53918U 22119AJ  24112.10087717 -.00007571  00000-0 -45829-3 0  9995,2 53918  53.2170 160.7356 0001904  89.6289 270.4922 15.08820020 87603,6917.941,95.439,541.124,538.489,0.0
53918.0,STARLINK-5012,PAYLOAD,2024-04-21 13:32:58,15.08805295,0.000152,53.2164,158.6501,105.7694,254.3466,-0.00036669,-6.114e-05,0.0,0 STARLINK-5012,1 53918U 22119AJ  24112.56457127 -.00006114  00000-0 -36669-3 0  9995,2 53918  53.2164 158.6501 0001520 105.7694 254.3466 15.08805295 88093,6917.986,95.44,540.903,538.8,0.0
53918.0,STARLINK-5012,PAYLOAD,2024-04-22 10:12:58,15.08863826,0.000162,53.2161,154.7865,89.961,270.1568,0.0010552,0.00016556,0.0,0 STARLINK-5012,1 53918U 22119AJ  24113.42567789  .00016556  00000-0  10552-2 0  9998,2 53918  53.2161 154.7865 0001620  89.9610 270.1568 15.08863826 87803,6917.808,95.436,540.793,538.552,0.0
53918.0,STARLINK-5012,PAYLOAD,2024-04-22 13:23:44,15.08870037,0.0001603,53.2159,154.1908,113.6621,246.454,0.0011375,0.00017877,0.0,0 STARLINK-5012,1 53918U 22119AJ  24113.55815324  .00017877  00000-0  11375-2 0  9994,2 53918  53.2159 154.1908 0001603 113.6621 246.4540 15.08870037 88247,6917.789,95.436,540.763,538.545,0.0
53918.0,STARLINK-5012,PAYLOAD,2024-04-23 02:06:50,15.08860703,0.0002484,53.2152,151.8102,100.337,259.7902,0.00058845,9.095e-05,0.0,0 STARLINK-5012,1 53918U 22119AJ  24114.08807969  .00009095  00000-0  58845-3 0  9996,2 53918  53.2152 151.8102 0002484 100.3370 259.7902 15.08860703 87902,6917.817,95.436,541.4,537.964,0.0
53918.0,STARLINK-5012,PAYLOAD,2024-04-23 10:03:45,15.08854362,0.0001365,53.2162,150.3244,114.2925,245.821,0.00018442,2.649e-05,0.0,0 STARLINK-5012,1 53918U 22119AJ  24114.41927560  .00002649  00000-0  18442-3 0  9990,2 53918  53.2162 150.3244 0001365 114.2925 245.8210 15.08854362 87958,6917.836,95.437,540.646,538.757,0.0
53918.0,STARLINK-5012,PAYLOAD,2024-04-24 11:29:56,15.08842971,0.0002109,53.2177,145.5634,69.1883,290.9335,-0.00018059,-3.162e-05,0.0,0 STARLINK-5012,1 53918U 22119AJ  24115.47912079 -.00003162  00000-0 -18059-3 0  9993,2 53918  53.2177 145.5634 0002109  69.1883 290.9335 15.08842971 88112,6917.871,95.437,541.195,538.277,0.0
53918.0,STARLINK-5012,PAYLOAD,2024-04-25 08:09:57,15.08841641,0.0001924,53.2158,141.7034,72.6472,287.473,0.00016425,2.327e-05,0.0,0 STARLINK-5012,1 53918U 22119AJ  24116.34024362  .00002327  00000-0  16425-3 0  9994,2 53918  53.2158 141.7034 0001924  72.6472 287.4730 15.08841641 88663,6917.875,95.437,541.071,538.409,0.0
53918.0,STARLINK-5012,PAYLOAD,2024-04-26 04:49:57,15.08845305,0.0001856,53.2165,137.8386,103.2037,256.9162,0.00016976,2.415e-05,0.0,0 STARLINK-5012,1 53918U 22119AJ  24117.20135989  .00002415  00000-0  16976-3 0  9997,2 53918  53.2165 137.8386 0001856 103.2037 256.9162 15.08845305 88378,6917.864,95.437,541.013,538.445,0.0
53918.0,STARLINK-5012,PAYLOAD,2024-04-26 11:11:29,15.08849803,0.0001746,53.215,136.6468,95.5071,264.612,0.00022281,3.261e-05,0.0,0 STARLINK-5012,1 53918U 22119AJ  24117.46631685  .00003261  00000-0  22281-3 0  9995,2 53918  53.2150 136.6468 0001746  95.5071 264.6120 15.08849803 88837,6917.85,95.437,540.923,538.508,0.0
